#aV2023 10  7  0  0  0.00000000     288 DD+AD WGS84 FIT  NGA
## 2282 518400.00000000   300.00000000 60224 0.0000000000000
+   32     1  2  3  4  5  6  7  8  9 10 11 12 13 14 15 16 17
+         18 19 20 21 22 23 24 25 26 27 28 29 30 31 32  0  0
+          0  0  0  0  0  0  0  0  0  0  0  0  0  0  0  0  0
+          0  0  0  0  0  0  0  0  0  0  0  0  0  0  0  0  0
+          0  0  0  0  0  0  0  0  0  0  0  0  0  0  0  0  0
++         2  2  2  2  2  2  2  2  2  2  2  2  2  2  2  2  2
++         2  2  2  2  2  2  2  2  2  2  2  2  2  2  2  0  0
++         0  0  0  0  0  0  0  0  0  0  0  0  0  0  0  0  0
++         0  0  0  0  0  0  0  0  0  0  0  0  0  0  0  0  0
++         0  0  0  0  0  0  0  0  0  0  0  0  0  0  0  0  0
%c cc cc ccc ccc cccc cccc cccc cccc ccccc ccccc ccccc ccccc
%c cc cc ccc ccc cccc cccc cccc cccc ccccc ccccc ccccc ccccc
%f  0.0000000  0.000000000  0.00000000000  0.000000000000000
%f  0.0000000  0.000000000  0.00000000000  0.000000000000000
%i    0    0    0    0      0      0      0      0         0
%i    0    0    0    0      0      0      0      0         0
/*      NGA, ST. LOUIS,MO.                                  
/*   EPHEMERIS COMPUTED FROM 2 DAYS OF DATA                 
/*   EPOCHA v8 SMOOTHER                                     
/*   G2139 IERS2010 SATIGS SATAPC                           
*  2023 10  7  8 30  0.00000000
P  1  20931.604960  13571.991491   9251.879771    164.064435                    
V  1   7140.428669   9890.513103 -29243.655296     -0.005733                    
P  2  21368.814864  15690.176211   3305.610461   -545.062926                    
V  2   1108.863562   4131.099825 -31432.654714      0.046567                    
P  3  13815.153116   5142.574904  21948.824840    -93.452615                    
V  3  -7805.295395  27061.198404  -1312.934791      0.224140                    
P  4  24606.686276   1835.070593   9997.972982    177.435380                    
V  4 -11870.798308   4937.457669  28206.723503      0.108832                    
P  5  -7426.400199 -19223.743153 -16885.218277   -145.559153                    
V  5   6450.248110 -20171.706580  20441.497270     -0.014653                    
P  6    972.902498 -17801.675517  19722.642708    535.828728                    
V  6  17749.878303  17422.251034  14987.894697     -0.079871                    
P  7  17430.458228  -2088.486615 -19594.208152     47.047896                    
V  7  17127.896149  19351.184019  12396.294247     -0.102923                    
P  8  18421.853027   7804.398456 -17742.595863   -145.881116                    
V  8 -21005.374454   7447.543016 -18214.733062     -0.019124                    
P  9  25781.216025  -6434.733020    913.323267    -39.336487                    
V  9   -446.368951   3136.889776  31599.906033      0.106490                    
P 10 -10883.500706  23180.633126  -6183.289145    -56.347608                    
V 10    -88.223850  -8493.575099 -31092.893783     -0.015050                    
P 11 -10011.685043 -22325.578649  10414.740819   -403.780923                    
V 11  10409.030361   8394.654333  27994.122555     -0.176112                    
P 12 -12491.763292  -9042.134628  21360.513763   -433.122395                    
V 12   9844.819329 -25948.906203  -5090.041408     -0.042551                    
P 13  -9311.828277 -13543.604201 -21106.139266    581.184493                    
V 13  26054.888845  -3386.484307  -9201.360973      0.043634                    
P 14  13511.997680 -20822.291802  -9186.129693    206.825007                    
V 14   -620.119993  12150.419911 -28549.491671      0.111458                    
P 15 -19811.048655  -5739.832690 -17347.082037     84.703834                    
V 15  18770.146516  -9816.632239 -18483.545439      0.037106                    
P 16   1618.817955  22594.838809 -13797.428154   -442.985411                    
V 16  -8322.802110  15208.208766  24925.642698      0.059411                    
P 17  18456.887159 -13307.108389  14232.256565    723.862116                    
V 17  17281.720467  -1507.270535 -24465.716426     -0.000829                    
P 18 -15693.500128   4127.655094 -21055.112798   -441.118443                    
V 18 -17758.751593 -19908.919368   9153.283349     -0.119478                    
P 19  10534.163302 -14686.971670  19141.887398    381.603943                    
V 19  24772.328308  -2049.354047 -15382.192014      0.051999                    
P 20  -1724.469546 -25853.952261  -6227.767381    408.085389                    
V 20   3693.375608  -7583.362814  30070.997203     -0.019524                    
P 21  20496.295745  17666.519564     81.884751    147.332432                    
V 21  -1701.182414   1175.712914 -31189.786631     -0.008884                    
P 22  10632.594226 -24416.898362  -1612.909249    107.591670                    
V 22   1431.984781   3321.023863 -31537.104032     -0.072405                    
P 23 -15205.886220  13767.804122 -16764.621157     79.004478                    
V 23   3672.303313 -21082.521266 -20807.951790      0.056462                    
P 24 -21783.937109 -15014.081596   3808.946747   -339.614525                    
V 24  -1855.966665  -5917.783376 -30393.440431     -0.100692                    
P 25 -16201.780796   5916.016206  19806.696054    471.517581                    
V 25   5423.274158 -25424.966395  12104.102262      0.018669                    
P 26  -3006.955712  26017.598084  -3174.734707    224.607501                    
V 26  -4679.440527   3051.143096  30999.548636     -0.021436                    
P 27   5637.987410  14248.310754 -21967.305245    -51.323846                    
V 27 -26401.333564   6748.020285  -2020.327347     -0.059168                    
P 28  -2546.671143  17075.695653  20161.585668    -21.244545                    
V 28 -19195.834095 -17041.950776  11994.839012     -0.065010                    
P 29 -26303.203094   4015.408904    706.223651   -609.906468                    
V 29    545.496046  -2421.690910  31970.169530     -0.002555                    
P 30  10004.044651 -12181.135751 -21243.067242   -480.949048                    
V 30  19209.412381  19501.988221  -2386.366187      0.036070                    
P 31   5662.260003  21192.641887  14478.694132   -224.344867                    
V 31 -14731.315425 -12121.107680  23607.430003     -0.004797                    
P 32 -14062.449986  15519.862222  16390.914103   -569.140448                    
V 32 -20389.465815   3302.603922 -21050.749630     -0.054841                    
EOF
